CityHun;CityLoc;CountryName;CountryCode;Latitude;Longitude
Alsósajó;Nižná Slaná;Slovakia;SK;48.725408;20.415991
Bélkismaros;Stoineºti;Romania;RO;46.613021;22.025031
Bélnagymaros;Mãrãuº;Romania;RO;46.594403;22.034298
Bodrog;Bodrog;Romania;RO;46.731638;23.766742
Bodrog;Bodrog;Hungary;HU;48.299361;21.557656
Bodroghalom;Bodroghalom;Hungary;HU;48.303573;21.704878
Bodrogkeresztúr;Bodrogkeresztúr;Hungary;HU;48.15876;21.360658
Bodrogkisfalud;Bodrogkisfalud;Hungary;HU;48.172833;21.357453
Bodrogmezõ;Po¾any;Slovakia;SK;48.469353;21.993405
Bodrogolaszi;Bodrogolaszi;Hungary;HU;48.287651;21.517628
Bodrogszentes;Svätuše;Slovakia;SK;48.430201;21.921972
Bodrogszentmária;Sväta Maria;Slovakia;SK;48.704329;20.673351
Bodrogszerdahely;Streda nad Bodrogom;Slovakia;SK;48.368091;21.757509
Bodrogszög;Klín nad Bodrogom;Slovakia;SK;48.37678;21.732513
Bodrogvécs;Veè;Slovakia;SK;48.407086;21.844659
Drávacsány;Gornji Hrašæan;Croatia;HR;46.377018;16.349361
Drávacsehi;Drávacsehi;Hungary;HU;45.811041;18.166555
Drávacsepely;Drávacsepely;Hungary;HU;45.828459;18.136619
Drávadiós;Orehovica;Croatia;HR;46.331552;16.506794
Drávaegyház;Cirkovljan;Croatia;HR;46.342303;16.646836
Drávafok;Drávafok;Hungary;HU;45.884981;17.763702
Drávafüred;Oporovec;Croatia;HR;46.329982;16.674622
Drávagárdony;Drávagárdony;Hungary;HU;45.944043;17.60468
Drávaiványi;Drávaiványi;Hungary;HU;45.84676;17.818134
Drávakeresztúr;Drávakeresztúr;Hungary;HU;45.839408;17.758761
Drávamagyaród;Trnovec;Croatia;HR;46.382462;16.311131
Drávanagyfalu;Strahoninec;Croatia;HR;46.372018;16.415408
Drávaóhid;Pretetinec;Croatia;HR;46.392659;16.369969
Drávaollár;Vularija;Croatia;HR;46.328968;16.479081
Drávapalkonya;Drávapalkonya;Hungary;HU;45.803469;18.179718
Drávapiski;Drávapiski;Hungary;HU;45.840022;18.100571
Drávasiklós;Èukovec;Croatia;HR;46.346884;16.707408
Drávaszabolcs;Drávaszabolcs;Hungary;HU;45.805976;18.210737
Drávaszentistván;Štefanec;Croatia;HR;46.373491;16.492169
Drávaszentiván;Ivanovec;Croatia;HR;46.369286;16.478865
Drávaszentmihály;Mihovljan;Croatia;HR;46.404971;16.446936
Drávaszerdahely;Drávaszerdahely;Hungary;HU;45.836338;18.163582
Drávaszilas;Podbrest;Croatia;HR;46.330273;16.545427
Drávasztára;Drávasztára;Hungary;HU;45.825622;17.822729
Drávatamási;Drávatamási;Hungary;HU;45.939854;17.571421
Drávavásárhely;Nedelišæe;Croatia;HR;46.37556;16.383805
Dunaalmás;Dunaalmás;Hungary;HU;47.733437;18.335125
Dunabogdány;Dunabogdány;Hungary;HU;47.794015;19.035083
Dunabökény;Mladenovo;Serbia;RS;45.304291;19.26208
Dunacséb;Èelarevo;Serbia;RS;45.27182;19.527196
Dunacsún;Èuòovo;Slovakia;SK;48.030206;17.194905
Dunadombó;Dubovac;Serbia;RS;44.795784;21.206895
Dunaegyháza;Dunaegyháza;Hungary;HU;46.836612;18.953575
Dunafalva;Dunafalva;Hungary;HU;46.083745;18.773863
Dunaföldvár;Dunaföldvár;Hungary;HU;46.810432;18.922292
Dunagálos;Gložan;Serbia;RS;45.277109;19.574368
Dunagárdony;Gardinovci;Serbia;RS;45.20364;20.135807
Dunaharaszti;Dunaharaszti;Hungary;HU;47.359976;19.095336
Dunahidas;Most pri Bratislava;Slovakia;SK;48.145545;17.263886
Dunajánosháza;Jánovce;Slovakia;SK;49.190508;21.305252
Dunajó;Dunajov;Slovakia;SK;49.360688;18.820818
Dunakeszi;Dunakeszi;Hungary;HU;47.63167;19.129406
Dunakeszi ;Dunakeszi ;Hungary;HU;47.63167;19.129406
Dunakiliti;Dunakiliti;Hungary;HU;47.966133;17.288257
Dunakisfalud;Vieska;Slovakia;SK;48.667324;20.83667
Dunamocs;Moèa;Slovakia;SK;47.77687;18.405962
Dunaorbágy;Ieºelniþa;Romania;RO;44.741859;22.269836
Dunapataj;Dunapataj;Hungary;HU;46.644276;18.999011
Dunaradvány;Radvaò nad Dunajom;Slovakia;SK;47.761913;18.358793
Dunaremete;Dunaremete;Hungary;HU;47.876644;17.437091
Dunasáp;Dedinka pri Dunaji;Slovakia;SK;48.183275;17.349034
Dunaszeg;Dunaszeg;Hungary;HU;47.769646;17.540074
Dunaszekcsõ;Dunaszekcsõ;Hungary;HU;46.084879;18.759613
Dunaszentbenedek;Dunaszentbenedek;Hungary;HU;46.59387;18.894405
Dunaszentgyörgy;Dunaszentgyörgy;Hungary;HU;46.534705;18.811276
Dunaszentilona;Sfânta Elena;Romania;RO;44.677303;21.711452
Dunaszentmiklós;Dunaszentmiklós;Hungary;HU;47.704011;18.381417
Dunaszentpál;Dunaszentpál;Hungary;HU;47.776717;17.50706
Dunaszerdahely;Dunajská Streda;Slovakia;SK;47.985118;17.614173
Dunasziget;Dunasziget;Hungary;HU;47.941444;17.353902
Dunatetétlen;Dunatetétlen;Hungary;HU;46.755103;19.101877
Dunatorony;Tureò;Slovakia;SK;48.192183;17.389244
Dunatõkés;Dunajský Klátov;Slovakia;SK;48.03269;17.692381
Dunatölgyes;Dubova;Romania;RO;44.619505;22.25545
Dunaújfalu;Nová Dedinka;Slovakia;SK;48.184588;17.360204
Dunaújváros;Dunaújváros;Hungary;HU;46.967024;18.939706
Dunaújvárosi ;Dunaújvárosi ;Hungary;HU;47.014336;18.845776
Dunavarsány;Dunavarsány;Hungary;HU;47.279187;19.066161
Dunavecse;Dunavecse;Hungary;HU;46.916366;18.971654
Feketetisza;Csorna Tisza;Ukraine;UA;48.31445;24.324299
Felsõmarosújvár;Uioara de Sus;Romania;RO;46.389733;23.887006
Felsõsajó;Vyšná Slaná;Slovakia;SK;48.785881;20.319336
Holtmaros;Lunca Mureºului;Romania;RO;46.874599;24.790733
Kismaros;Kismaros;Hungary;HU;47.826576;19.012628
Kissajó;ªieuþ;Romania;RO;46.976649;24.648069
Kõvágó;Kamenná Poruba;Slovakia;SK;48.847796;21.655459
Kõvágóörs;Kõvágóörs;Hungary;HU;46.849038;17.60161
Kõvágószõlõs;Kõvágószõlõs;Hungary;HU;46.083969;18.123781
Kõvágótöttös;Kõvágótöttös;Hungary;HU;46.084265;18.100312
Máramarossziget;Sighetu Marmaþiei;Romania;RO;47.929361;23.887968
Marosagárd;Poieniþa;Romania;RO;47.308742;23.347637
Marosaszó;Ususãu;Romania;RO;46.070628;21.813712
Marosbárdos;Bãrdeºti;Romania;RO;46.594513;24.513094
Marosbéld;Beldiu;Romania;RO;46.236295;23.715374
Marosberkes;Birchiº;Romania;RO;45.96496;22.169987
Marosbogát;Bogata;Romania;RO;44.206817;27.116704
Marosborgó;Mureºenii Bârgãului;Romania;RO;47.210662;24.859955
Marosborosznok;Bruznic;Romania;RO;45.981276;21.892251
Marosborsa;Bârzava;Romania;RO;46.106362;21.992566
Marosbrettye;Bretea Mureºanã;Romania;RO;45.937633;22.710494
Maroscsapó;Cipãu;Romania;RO;46.446181;24.281494
Maroscsicsér;Cicir;Romania;RO;46.144772;21.480124
Maroscsúcs;Stâna de Mureº;Romania;RO;46.42504;23.995785
Maroscsüged;Ciugud;Romania;RO;46.046065;23.612864
Marosdátos;Dãtãºeni;Romania;RO;46.474748;24.174852
Marosdécse;Decea;Romania;RO;46.382214;23.766361
Marosdég;Deag;Romania;RO;46.388962;24.192676
Maroseperjes;Chelmac;Romania;RO;46.081797;21.884631
Maroserdõd;Pãdurani;Romania;RO;45.87855;22.068056
Marosesd;Mãrãºeºti;Romania;RO;45.874081;27.218417
Marosfalva;Marušová;Slovakia;SK;48.236037;18.521126
Marosfelfalu;Suseni;Romania;RO;46.353748;27.662461
Marosfõ;Izvoru Mureºului;Romania;RO;46.627095;25.682744
Marosgezse;Gheja;Romania;RO;46.448426;24.064493
Marosgombás;Gâmbaº;Romania;RO;46.346133;23.723575
Marosgórós;Groºi;Romania;RO;45.914905;22.28657
Maroshéviz;Topliþa;Romania;RO;47.358575;23.465404
Maroshollód;Corbeºti;Romania;RO;46.89208;22.232472
Marosillye;Ilia;Romania;RO;45.934765;22.658364
Marosjára;Iara de Mureº;Romania;RO;46.661484;24.730556
Maroskapronca;Cãpruþa;Romania;RO;46.088608;22.02522
Maroskáptalan;Cãptãlan;Romania;RO;46.409208;23.941717
Maroskarna;Blandiana;Romania;RO;45.976944;23.38589
Maroskece;Cheþani;Romania;RO;46.464351;24.02788
Maroskeresztúr;Cristeºti;Romania;RO;47.261555;26.580322
Maroskisfalud;Miceºti;Romania;RO;44.961465;24.855199
Maroskoppánd;Copand;Romania;RO;46.41999;23.981086
Maroskövesd;Pietriº;Romania;RO;46.935937;24.844078
Maroslaka;Maioreºti;Romania;RO;46.907872;24.8106
Maroslekence;Lechinþa;Romania;RO;47.023117;24.337962
Maroslele;Maroslele;Hungary;HU;46.267462;20.342635
Marosliget;Dumbrava;Romania;RO;47.214268;24.621593
Marosludas;Luduº;Romania;RO;46.483306;24.095084
Marosmonyoró;Monoroºtia;Romania;RO;46.10476;22.013779
Marosnagylak;Noºlac;Romania;RO;46.404279;23.932844
Marosnagyvölgy;Valea Mare;Romania;RO;44.680477;23.995069
Marosnémeti;Mintia;Romania;RO;45.919276;22.851841
Marosorbó;Oarba de Mureº;Romania;RO;46.462354;24.28992
Marosoroszfalu;Ruºii-Munþi;Romania;RO;46.915249;24.832819
Marosoroszi;Urisiu de Sus;Romania;RO;46.706223;24.911087
Marosoroszi;Orosia;Romania;RO;46.456511;24.140508
Marosörményes;Ormeniº;Romania;RO;46.325479;24.54376
Marospetres;Petriº;Romania;RO;47.098596;24.623356
Marossárpatak;Glodeni;Romania;RO;45.021737;25.463959
Marossolymos;ªoimuº;Romania;RO;47.299499;23.183243
Marosszalatna;Slatina de Mureº;Romania;RO;46.156105;22.184437
Marosszeleste;Seliºte;Romania;RO;46.029239;22.387791
Marosszentanna;Sântana de Mureº;Romania;RO;46.578499;24.557482
Marosszentgyörgy;Sângeorgiu de Mureº;Romania;RO;46.578085;24.611417
Marosszentimre;Sântimbru;Romania;RO;46.285083;25.868546
Marosszentjakab;Sâniacob;Romania;RO;46.423543;24.131916
Marosszentkirály;Sâncraiu de Mureº;Romania;RO;46.544963;24.520497
Marossziget;Ostrov;Romania;RO;44.105671;27.370717
Marostelek;Teleac;Romania;RO;46.088081;23.628591
Marosugra;Ogra;Romania;RO;46.446682;24.318044
Marosújvár;Ocna Mureº;Romania;RO;46.381403;23.857735
Marosvásárhely;Târgu Mureº;Romania;RO;46.544624;24.561195
Marosvécs;Brâncoveneºti;Romania;RO;46.855274;24.758017
Kisvajdafalva;Voivodenii Mici;Romania;RO;FAILED;FAILED
Nagymaros;Nagymaros;Hungary;HU;47.789105;18.958935
Nagysajó;ªieu;Romania;RO;47.001073;24.608549
Óbodrog;Bodrogu Vechi;Romania;RO;46.138903;21.174656
Ószagyva;Sadova Veche;Romania;RO;45.249062;22.298024
Rábacsanak;Rábacsanak;Hungary;HU;47.525492;17.289467
Rábacsécsény;Rábacsécsény;Hungary;HU;47.587767;17.423337
Rábagyarmat;Rábagyarmat;Hungary;HU;46.942711;16.421771
Rábahídvég;Rábahídvég;Hungary;HU;47.0725;16.742143
Rábakecöl;Rábakecöl;Hungary;HU;47.432216;17.114087
Rábakeresztúr;Heiligenkreuz im Lafnitztal;Austria;AT;46.98921;16.2605
Rábaõr;Oberdrosen;Austria;AT;46.885657;16.114981
Rábapatona;Rábapatona;Hungary;HU;47.631834;17.48095
Rábapaty;Rábapaty;Hungary;HU;47.302802;16.927879
Rábapordány;Rábapordány;Hungary;HU;47.55692;17.322872
Rábasebes;Rábasebes;Hungary;HU;47.440281;17.242945
Rábaszentandrás;Rábaszentandrás;Hungary;HU;47.460791;17.33004
Rábaszentmárton;Sankt Martin an der Raab;Austria;AT;46.92011;16.134687
Rábaszentmihály;Rábaszentmihály;Hungary;HU;47.578795;17.433238
Rábaszentmiklós;Rábaszentmiklós;Hungary;HU;47.537918;17.417115
Rábatamási;Rábatamási;Hungary;HU;47.588392;17.169238
Rábatöttös;Rábatöttös;Hungary;HU;47.132245;16.808694
Rábcakapi;Rábcakapi;Hungary;HU;47.708754;17.275819
Sajó;ªieu;Romania;RO;47.001073;24.608549
Sajóbábony;Sajóbábony;Hungary;HU;48.175009;20.738632
Sajóecseg;Sajóecseg;Hungary;HU;48.191232;20.775748
Sajófelsõsebes;Sebiº;Romania;RO;47.006154;24.714853
Sajógalgóc;Sajógalgóc;Hungary;HU;48.29597;20.531097
Sajógömör;Gemer;Slovakia;SK;48.45;20.316667
Sajóháza;Nadabula;Slovakia;SK;48.682228;20.503045
Sajóhídvég;Sajóhídvég;Hungary;HU;48.003061;20.950298
Sajóivánka;Sajóivánka;Hungary;HU;48.266106;20.579371
Sajókápolna;Sajókápolna;Hungary;HU;48.196443;20.680274
Sajókaza;Sajókaza;Hungary;HU;48.282463;20.582985
Sajókeresztúr;Sajókeresztúr;Hungary;HU;48.169673;20.776161
Sajókeszi;Kesovce;Slovakia;SK;48.375177;20.354029
Sajókirályi;Králik;Slovakia;SK;48.41099;20.318577
Sajólád;Sajólád;Hungary;HU;48.046666;20.902488
Sajólászlófalva;Sajólászlófalva;Hungary;HU;48.184958;20.674992
Sajólénártfalva;Lenartovce;Slovakia;SK;48.299912;20.310626
Sajólenke;Lenka;Slovakia;SK;48.387095;20.348402
Sajómagyarós;ªieu-Mãgheruº;Romania;RO;47.092079;24.373169
Sajómercse;Sajómercse;Hungary;HU;48.245066;20.413177
Sajómezõ;Poienile Izei;Romania;RO;47.70309;24.112759
Sajónagyfalu;Mãriºelu;Romania;RO;47.011928;24.508095
Sajónémeti;Sajónémeti;Hungary;HU;48.272149;20.383905
Sajóörös;Sajóörös;Hungary;HU;47.951183;21.022199
Sajópálfala;Sajópálfala;Hungary;HU;48.161481;20.845423
Sajópetri;Sajópetri;Hungary;HU;48.037043;20.890296
Sajópüspöki;Sajópüspöki;Hungary;HU;48.280336;20.344565
Sajórecske;Rieèka;Slovakia;SK;48.339813;20.331152
Sajóréde;Rejdová;Slovakia;SK;48.790747;20.285695
Sajósárvár;ªirioara;Romania;RO;47.101993;24.295032
Sajósebes;Ruºtior;Romania;RO;46.99317;24.670798
Sajósenye;Sajósenye;Hungary;HU;48.195709;20.819858
Sajósolymos;ªoimuº;Romania;RO;46.393877;24.587032
Sajószárnya;Staròa;Slovakia;SK;48.440766;20.350855
Sajószentandrás;ªieu-Sfântu;Romania;RO;47.145346;24.30695
Sajószentiván;Sântioana;Romania;RO;46.283675;24.551323
Sajószentkirály;Krá¾;Slovakia;SK;48.328217;20.341457
Sajószentpéter;Sajószentpéter;Hungary;HU;48.218354;20.708776
Sajószöged;Sajószöged;Hungary;HU;47.944745;20.99233
Sajótiba;Tiba;Slovakia;SK;48.740855;22.208246
Sajóudvarhely;ªieu-Odorhei;Romania;RO;47.152934;24.291286
Sajóvámos;Sajóvámos;Hungary;HU;48.181926;20.831239
Sajóvelezd;Sajóvelezd;Hungary;HU;48.273165;20.461417
Tisza;Tisa;Romania;RO;45.135841;26.320513
Tiszaadony;Tiszaadony;Hungary;HU;48.225176;22.290529
Tiszaágtelek;Tiszaagtelek;Ukraine;UA;48.44286;22.328101
Tiszaalpár;Tiszaalpár;Hungary;HU;46.821962;19.989306
Tiszaásvány;Tiszaasvany;Ukraine;UA;48.424843;22.251951
Tiszabábolna;Tiszabábolna;Hungary;HU;47.686774;20.811774
Tiszabecs;Tiszabecs;Hungary;HU;48.095824;22.811806
Tiszabercel;Tiszabercel;Hungary;HU;48.156524;21.649389
Tiszabezdéd;Tiszabezdéd;Hungary;HU;48.364556;22.150905
Tiszabogdány;Bohdan;Ukraine;UA;48.04287;24.33746
Tiszaborkút;Kvaszi;Ukraine;UA;48.149598;24.282444
Tiszabõ;Tiszabõ;Hungary;HU;47.309023;20.485289
Tiszabökény;Bobove;Ukraine;UA;48.118406;23.678503
Tiszabura;Tiszabura;Hungary;HU;47.446639;20.457779
Tiszacsécse;Tiszacsécse;Hungary;HU;48.109661;22.744604
Tiszacsege;Tiszacsege;Hungary;HU;47.697548;20.993597
Tiszacsermely;Tiszacsermely;Hungary;HU;48.233447;21.799582
Tiszacsernyõ;Èierna nad Tisou;Slovakia;SK;48.418391;22.081914
Tiszacsoma;Csoma;Ukraine;UA;48.136659;22.632584
Tiszadada;Tiszadada;Hungary;HU;48.030817;21.236601
Tiszaderzs;Tiszaderzs;Hungary;HU;47.513218;20.642132
Tiszadob;Tiszadob;Hungary;HU;48.009477;21.166844
Tiszadorogma;Tiszadorogma;Hungary;HU;47.681991;20.862767
Tiszaeszlár;Tiszaeszlár;Hungary;HU;48.042431;21.45668
Tiszafa;Eibenthal;Romania;RO;44.545018;22.164342
Tiszafalva;Tisa;Romania;RO;45.135841;26.320513
Szuszkó;Szuszkove;Ukraine;UA;FAILED;FAILED
Tiszafejéregyház;Bila Cerkva;Ukraine;UA;49.803819;30.111692
Tiszafejéregyháza;Bila Cerkva;Ukraine;UA;49.803819;30.111692
Tiszaföldvár;Tiszaföldvár;Hungary;HU;46.980354;20.254117
Tiszafüred;Tiszafüred;Hungary;HU;47.613088;20.750226
Tiszafüredi ;Tiszafüredi ;Hungary;HU;47.558738;20.831376
Tiszagyenda;Tiszagyenda;Hungary;HU;47.378726;20.512039
Tiszagyulaháza;Tiszagyulaháza;Hungary;HU;47.943088;21.141303
Tiszahegyes;Idjoš;Serbia;RS;45.830517;20.31654
Tiszahetény;Hetinya;Ukraine;UA;48.088087;23.014799
Tiszaigar;Tiszaigar;Hungary;HU;47.535376;20.79997
Tiszainoka;Tiszainoka;Hungary;HU;46.906099;20.152249
Tiszaistvánfalva;Baèki Jarak;Serbia;RS;45.370012;19.876121
Tiszajenõ;Tiszajenõ;Hungary;HU;47.031176;20.141583
Tiszakálmánfalva;Budisava;Serbia;RS;45.281184;19.992638
Tiszakanyár;Tiszakanyár;Hungary;HU;48.247962;21.961943
Tiszakarácsonyfalva;Crãciuneºti;Romania;RO;46.4773;24.575241
Tiszakarád;Tiszakarád;Hungary;HU;48.202841;21.720018
Tiszakécske;Tiszakécske;Hungary;HU;46.931529;20.104536
Tiszakécskei ;Tiszakécskei ;Hungary;HU;46.872499;20.009498
Tiszakerecseny;Tiszakerecseny;Hungary;HU;48.258709;22.300093
Tiszakeresztúr;Perehresztya;Ukraine;UA;48.135861;22.837335
Tiszakeszi;Tiszakeszi;Hungary;HU;47.788244;20.99451
Tiszakirva;Kriva;Ukraine;UA;48.908058;24.036914
Tiszakóród;Tiszakóród;Hungary;HU;48.106271;22.711602
Tiszakürt;Tiszakürt;Hungary;HU;46.886862;20.127701
Tiszaladány;Tiszaladány;Hungary;HU;48.06498;21.41367
Tiszaló;Tiszolove;Ukraine;UA;48.137131;23.777472
Tiszalonka;Luh;Ukraine;UA;50.18383;23.5746
Tiszalonka;Luh;Ukraine;UA;50.18383;23.5746
Tiszalök;Tiszalök;Hungary;HU;48.018714;21.376234
Tiszalúc;Tiszalúc;Hungary;HU;48.034586;21.063054
Tiszamogyorós;Tiszamogyorós;Hungary;HU;48.320442;22.231294
Tiszanagyfalu;Tiszanagyfalu;Hungary;HU;48.093524;21.470518
Tiszanána;Tiszanána;Hungary;HU;47.55648;20.529296
Tiszaörs;Tiszaörs;Hungary;HU;47.508044;20.820126
Tiszapalkonya;Tiszapalkonya;Hungary;HU;47.886469;21.054568
Tiszapéterfalva;Petrove;Ukraine;UA;48.33607;33.26626
Tiszapüspöki;Tiszapüspöki;Hungary;HU;47.214534;20.317297
Tiszarád;Tiszarád;Hungary;HU;48.121808;21.797032
Tiszaroff;Tiszaroff;Hungary;HU;47.397996;20.438295
Tiszasalamon;Szolomonove;Ukraine;UA;48.431947;22.162155
Tiszasas;Tiszasas;Hungary;HU;46.821114;20.07996
Tiszasásvár;Trosznik;Ukraine;UA;48.098854;22.948212
Tiszasüly;Tiszasüly;Hungary;HU;47.391533;20.392582
Tiszaszalka;Tiszaszalka;Hungary;HU;48.186343;22.314873
Tiszaszászfalu;Szaszove;Ukraine;UA;48.089789;23.080986
Tiszaszentimre;Tiszaszentimre;Hungary;HU;47.491398;20.723366
Tiszaszentmárton;Tiszaszentmárton;Hungary;HU;48.375922;22.233402
Tiszaszentmiklós;Ostojiæevo;Serbia;RS;45.889793;20.167689
Tiszasziget;Tiszasziget;Hungary;HU;46.17477;20.162133
Tiszaszirma;Drotinci;Ukraine;UA;48.107124;22.986582
Tiszaszõlõs;Tiszaszõlõs;Hungary;HU;47.556243;20.719662
Szuszkóújfalu;Szuszkove Nove Szelo;Ukraine;UA;FAILED;FAILED
Tiszatardos;Tiszatardos;Hungary;HU;48.040777;21.379409
Tiszatarján;Tiszatarján;Hungary;HU;47.834612;21.001051
Tiszatarrós;Taraš;Serbia;RS;45.466548;20.200535
Tiszatelek;Tiszatelek;Hungary;HU;48.192136;21.795131
Tiszatenyõ;Tiszatenyõ;Hungary;HU;47.135987;20.379758
Tiszaug;Tiszaug;Hungary;HU;46.851687;20.057935
Tiszaújfalu;Tiszaujfalu;Ukraine;UA;48.414985;22.275072
Tiszaújhely;Nove Szelo;Ukraine;UA;48.119927;22.888398
Tiszaújlak;Vilok;Ukraine;UA;48.111205;22.837459
Tiszaújváros;Tiszaújváros;Hungary;HU;47.928034;21.046706
Tiszaújvárosi ;Tiszaújvárosi ;Hungary;HU;47.926394;20.973058
Tiszavalk;Tiszavalk;Hungary;HU;47.689564;20.750462
Tiszavárkony;Tiszavárkony;Hungary;HU;47.067587;20.177215
Tiszavasvári;Tiszavasvári;Hungary;HU;47.956964;21.368455
Tiszavasvári ;Tiszavasvári ;Hungary;HU;47.956964;21.368455
Tiszaveresmart;Tisa;Romania;RO;45.135841;26.320513
Tiszavid;Tiszavid;Hungary;HU;48.194809;22.294551
Újbodrog;Bodrogu Nou;Romania;RO;46.128116;21.197971
Újszagyva;Sadova Nouã;Romania;RO;45.256866;22.345538
Vága;Váhovce;Slovakia;SK;48.25;17.783333
Vágagyagos;Hliník nad Váhom;Slovakia;SK;49.233768;18.577441
Vágalja;Podvažie;Slovakia;SK;49.168001;18.470539
Vágapátfalva;Opatová;Slovakia;SK;48.914093;18.093683
Vágapáti;Opatovce;Slovakia;SK;48.858861;17.977853
Vágaranyos;Zlatovce;Slovakia;SK;48.900642;18.021994
Vágbánya;Bohunice;Slovakia;SK;48.333485;18.75148
Ungdaróc;Dravci;Ukraine;UA;FAILED;FAILED
Vágbeszterce;Považská Bystrica;Slovakia;SK;49.121743;18.45638
Vágbori;Borovce;Slovakia;SK;48.574182;17.745565
Vágcsütörtök;Štvrtok;Slovakia;SK;48.816633;17.883306
Vágdebrõd;Drahovce;Slovakia;SK;48.518346;17.798505
Vágegyháza;Kostolná-Žárieèie;Slovakia;SK;48.879038;17.968156
Vágerdõalja;Podhorie;Slovakia;SK;49.174113;18.636236
Vágfarkasd;Vlèany;Slovakia;SK;48.037764;17.952651
Vágfüzes;Vrbová nad Váhom;Slovakia;SK;47.849508;18.049758
Vághegy;Hackerberg;Austria;AT;47.195502;16.107116
Vághegyes;Zástranie;Slovakia;SK;49.241115;18.815756
Vághéve;Považská Teplá;Slovakia;SK;49.142026;18.472963
Vághidas;Istebník;Slovakia;SK;48.757443;19.247732
Vághorka;Hôrka nad Váhom;Slovakia;SK;48.711579;17.949547
Vághosszúfalu;Dlhá nad Váhom;Slovakia;SK;48.181706;17.861086
Vágkelecsény;Turèianske K¾aèany;Slovakia;SK;49.134943;18.949441
Vágkeresztúr;Krížovany nad Dudváhom;Slovakia;SK;48.321872;17.651971
Vágkirályfa;Krá¾ová nad Váhom;Slovakia;SK;48.176044;17.823555
Vágkohány;Kochanovce;Slovakia;SK;49.190403;21.386597
Vágköre;Okrut;Slovakia;SK;49.155448;18.377551
Vágluka;Lúka;Slovakia;SK;48.657252;17.878984
Vágmagyarád;Modranka;Slovakia;SK;48.339145;17.618527
Vágmedence;Madunice;Slovakia;SK;48.482881;17.783003
Vágmogyoród;Lieskovec;Slovakia;SK;48.95;21.816667
Vágmosóc;Považany;Slovakia;SK;48.710031;17.847866
Vágnedec;Nededza;Slovakia;SK;49.220817;18.835699
Vágó;Ïubákovo;Slovakia;SK;48.561516;19.736326
Vágod;Holzschlag;Austria;AT;48.849512;15.00234
Vágõr;Stráže;Slovakia;SK;48.685349;18.435824
Vágpart;Savèina-Podvažie;Slovakia;SK;49.020406;18.239559
Vágpatta;Pata;Slovakia;SK;48.275763;17.825282
Vágrákó;Rako¾uby;Slovakia;SK;48.760455;17.885784
Vágratkó;Ratkovo;Slovakia;SK;49.133866;19.085406
Vágrévfalu;Mnešice;Slovakia;SK;48.767896;17.835435
Vágromos;Nosice;Slovakia;SK;49.130422;18.356715
Vágsellye;Ša¾a;Slovakia;SK;48.151379;17.874859
Vágsomfalu;Drienové;Slovakia;SK;48.401398;20.021052
Vágszabolcs;Záblatie;Slovakia;SK;48.895197;17.994995
Vágszakály;Sokolovce;Slovakia;SK;48.536636;17.842892
Vágszállás;Sedlièná;Slovakia;SK;48.825303;18.020719
Vágszentkereszt;Kríž nad Váhom;Slovakia;SK;48.702908;17.846424
Vágszentpéter;Svätý Peter;Slovakia;SK;47.846468;18.262893
Vágsziklás;Skalka nad Váhom;Slovakia;SK;48.936024;18.072847
Vágtapolca;Teplièka nad Váhom;Slovakia;SK;49.228025;18.797215
Vágterbete;Trebatice;Slovakia;SK;48.596347;17.749701
Vágújfalu;Nová Ves nad Váhom;Slovakia;SK;48.728664;17.901439
Vágújhely;Nové Mesto nad Váhom;Slovakia;SK;48.763325;17.830386
Vágutas;Újazd;Slovakia;SK;48.940081;18.07916
Vágváralja;Považské Podhradie;Slovakia;SK;49.141485;18.459787
Vágvecse;Veèa;Slovakia;SK;48.166591;17.887422
Vágvörösvár;Èerveník;Slovakia;SK;48.459918;17.756302
Vágzamárd;Zamarovce;Slovakia;SK;48.915064;18.05059
Vágzsámbokrét;Žakokreky;Slovakia;SK;49.02819;18.915119
Vágzsigmondháza;Orlové;Slovakia;SK;49.127477;18.429267
Zagyvarékas;Zagyvarékas;Hungary;HU;47.267714;20.12777
Zagyvaszántó;Zagyvaszántó;Hungary;HU;47.775589;19.67052
