CityHun;CityLoc;CountryName;CountryCode;Latitude;Longitude
Abaújvár;Abaújvár;Hungary;HU;48.526044;21.314622
Alsóolcsvár;Nižný Olèvar;Slovakia;SK;48.724434;21.352235
Bácsföldvár;Baèko Gradište;Serbia;RS;45.533436;20.027043
Bakóvár;Bacova;Romania;RO;45.666019;21.552001
Balatonföldvár;Balatonföldvár;Hungary;HU;46.84912;17.87924
Bányavár;Peklenica;Croatia;HR;46.497418;16.474206
Baranyavár;Branjin Vrh;Croatia;HR;45.794077;18.611686
Barsvörösvár;Èervený Hrádok;Slovakia;SK;48.300648;18.386292
Bélavár;Bélavár;Hungary;HU;46.121692;17.214929
Belovár;Bjelovar;Croatia;HR;45.899012;16.842444
Bérbaltavár;Bérbaltavár;Hungary;HU;47.010109;16.969015
Borzavár;Borzavár;Hungary;HU;47.291552;17.827182
Csákvár;Csákvár;Hungary;HU;47.391805;18.464064
Csõvár;Csõvár;Hungary;HU;47.813766;19.323848
Daruvár;Darova;Romania;RO;45.642004;21.773334
Daruvár;Daruvar;Croatia;HR;45.592749;17.223589
Diakovár;Djakovo;Croatia;HR;45.307982;18.411766
Dimvár;Suchohrad;Slovakia;SK;48.407103;16.858187
Dombóvár;Dombóvár;Hungary;HU;46.377899;18.133287
Dunaföldvár;Dunaföldvár;Hungary;HU;46.810432;18.922292
Egervár;Egervár;Hungary;HU;46.935569;16.853684
Érsekújvár;Nové Zámky;Slovakia;SK;47.996073;18.167648
Felsõmarosújvár;Uioara de Sus;Romania;RO;46.389733;23.887006
Felsõolcsvár;Košické O¾šany;Slovakia;SK;48.731627;21.344164
Földvár;Feldioara;Romania;RO;45.805258;24.688824
Földvár;Feldioara;Romania;RO;45.805258;24.688824
Gyõrvár;Gyõrvár;Hungary;HU;46.986525;16.83976
Gyulafehérvár;Alba Iulia;Romania;RO;46.068739;23.57044
Hédervár;Hédervár;Hungary;HU;47.831629;17.457013
Ikervár;Ikervár;Hungary;HU;47.208208;16.895386
Kányavár;Kányavár;Hungary;HU;46.572835;16.68058
Kaposvár;Kaposvár;Hungary;HU;46.356095;17.787787
Kaprevár;Cãprioara;Romania;RO;45.122782;28.40314
Kapuvár;Kapuvár;Hungary;HU;47.593704;17.027482
Keresztvár;Teliu;Romania;RO;45.697916;25.858019
Kézdikõvár;Petriceni;Romania;RO;46.068907;26.086098
Kiskolozsvár;Glasing;Austria;AT;47.042625;16.358007
Kisóvár;Stárý Hrádok;Slovakia;SK;48.151207;18.638418
Kisvár;Hradisko;Slovakia;SK;49.057178;20.523003
Kolozsvár;Cluj-Napoca;Romania;RO;46.769337;23.59006
Kóvár;Koláre;Slovakia;SK;48.070024;19.244477
Kozárvár;Cuzdrioara;Romania;RO;47.16773;23.919916
Krassóvár;Caraºova;Romania;RO;45.198325;21.86359
Kurucvár;Likicari;Ukraine;UA;48.778205;22.722241
Küküllõvár;Cetatea de Baltã;Romania;RO;46.247938;24.172445
Leányvár;Leányvár;Hungary;HU;47.681695;18.771026
Ligetvár;Draškovec;Croatia;HR;46.346699;16.676656
Liptóújvár;Liptovský Hrádok;Slovakia;SK;49.057555;19.784896
Marosújvár;Ocna Mureº;Romania;RO;46.381403;23.857735
Melegföldvár;Feldioara;Romania;RO;45.805258;24.688824
Mezõvár;Tešanovci;Slovenia;Sl;46.679853;16.247088
Miklósvár;Micloºoara;Romania;RO;46.007478;25.582573
Miksavár;Macinec;Croatia;HR;46.389011;16.324996
Mosonmagyaróvár;Mosonmagyaróvár;Hungary;HU;47.873179;17.272234
Németsóvár;Šváby;Slovakia;SK;48.969289;21.263165
Németújvár;Güssing;Austria;AT;47.058765;16.324336
Óbudavár;Óbudavár;Hungary;HU;46.937883;17.690772
Oroszvár;Rusovce;Slovakia;SK;48.046795;17.141569
Óvár;Olováry;Slovakia;SK;48.152295;19.408497
Óvár;Stárý Hrádok;Slovakia;SK;48.151207;18.638418
Parádsasvár;Parádsasvár;Hungary;HU;47.912103;19.978068
Pilisvörösvár;Pilisvörösvár;Hungary;HU;47.621062;18.911563
Pinkaóvár;Burg;Austria;AT;47.006615;12.433656
Pusztaföldvár;Pusztaföldvár;Hungary;HU;46.531595;20.80604
Révleányvár;Révleányvár;Hungary;HU;48.325127;22.040041
Ságvár;Ságvár;Hungary;HU;46.837423;18.101481
Sajósárvár;ªirioara;Romania;RO;47.101993;24.295032
Salomvár;Salomvár;Hungary;HU;46.850806;16.661336
Saroltavár;Charlotenburg;Romania;RO;45.977551;21.519131
Sárvár;Sárvár;Hungary;HU;47.251743;16.934217
Sasvár;Šaštín-Stráže;Slovakia;SK;48.639373;17.142879
Sebesvár;Bologa;Romania;RO;46.886003;22.876577
Segesvár;Sighiºoara;Romania;RO;46.217697;24.793777
Solymosvár;ªoimoº;Romania;RO;46.106481;21.718107
Sólyomkõvár;ªinteu;Romania;RO;47.139552;22.520327
Somogyvár;Somogyvár;Hungary;HU;46.579882;17.652375
Stridóvár;Štrigove;Croatia;HR;46.500119;16.286431
Stridóvár;Štrigova;Croatia;HR;46.501379;16.284569
Szamosújvár;Gherla;Romania;RO;47.031984;23.911944
Szászvár;Szászvár;Hungary;HU;46.274409;18.378309
Szegvár;Szegvár;Hungary;HU;46.585127;20.221903
Székelyföldvár;Rãzboieni-Cetate;Romania;RO;46.415419;23.872114
Székesfehérvár;Székesfehérvár;Hungary;HU;47.191017;18.410811
Szénavár;Senohrad;Slovakia;SK;48.357631;19.198072
Szentgyörgyvár;Szentgyörgyvár;Hungary;HU;46.756923;17.130877
Szigetvár;Szigetvár;Hungary;HU;46.047888;17.804806
Temesvár;Timiºoara;Romania;RO;45.753836;21.225747
Temesvukovár;Vucova;Romania;RO;45.620531;21.511822
Tiszaföldvár;Tiszaföldvár;Hungary;HU;46.980354;20.254117
Tiszasásvár;Trosznik;Ukraine;UA;48.098854;22.948212
Tótsóvár;Solivar;Slovakia;SK;48.976626;21.272106
Törcsvár;Bran;Romania;RO;45.519922;25.368403
Tüskevár;Tüskevár;Hungary;HU;47.118443;17.312908
Újvár;Uivar;Romania;RO;45.658059;20.905838
Ungvár;Uzshorod;Ukraine;UA;48.6208;22.287883
Vágvörösvár;Èerveník;Slovakia;SK;48.459918;17.756302
Vár;Var;Romania;RO;47.231174;23.29658
Váracska;Hradec;Slovakia;SK;48.762501;18.683051
Várad;Tekovský Hrádok;Slovakia;SK;48.166865;18.55195
Várad;Várad;Hungary;HU;45.974957;17.745845
Váradalpár;Alparea;Romania;RO;47.030537;22.048124
Váradcsehi;Cihei;Romania;RO;46.998915;21.952543
Váradja;Oarda;Romania;RO;46.020333;23.594298
Váradka;Varadka;Slovakia;SK;49.412088;21.384568
Váradles;Leº;Romania;RO;46.96586;21.835834
Váradpósa;Pãuºa;Romania;RO;45.263005;24.325214
Váradszentmárton;Sânmartin;Romania;RO;46.267234;25.961896
Váradszõllõs;Seleuº;Romania;RO;46.362502;24.58625
Váraduzsopa;ªumugiu;Romania;RO;46.890768;21.970982
Váralja;Subcetate;Romania;RO;45.595187;22.99201
Váralja;Váralja;Hungary;HU;46.267764;18.42854
Váralmás;Almaºu;Romania;RO;46.945452;23.132898
Várasfenes;Finiº;Romania;RO;46.651994;22.315593
Várassúr;Varov Šúr;Slovakia;SK;48.343093;17.73628
Váraszó;Váraszó;Hungary;HU;48.05844;20.112806
Várbalog;Várbalog;Hungary;HU;47.833983;17.070559
Várboksán;Bocºa Româna;Romania;RO;45.377012;21.718752
Várda;Várda;Hungary;HU;46.460464;17.738652
Várdaróc;Vardarac;Croatia;HR;45.625257;18.770092
Várdomb;Várdomb;Hungary;HU;46.247722;18.687362
Várdotfalva;ªumuleu;Romania;RO;46.377662;25.8339
Várfalva;Moldoveneºti;Romania;RO;46.498979;23.670686
Várfancsika;Fâºca;Romania;RO;46.981642;22.326944
Várfölde;Várfölde;Hungary;HU;46.555365;16.761388
Várgede;Hodejov;Slovakia;SK;48.300024;19.987391
Várgesztes;Várgesztes;Hungary;HU;47.472349;18.397106
Várhegy;Chinari;Romania;RO;46.604264;24.587881
Várhegy;Gradišèak;Croatia;HR;46.516412;16.347361
Várhely;Sarmizegetusa;Romania;RO;45.515257;22.782541
Várhosszúrét;Krásnohorská Dlhá Lúka;Slovakia;SK;48.625406;20.580436
Vári;Vari;Ukraine;UA;48.123606;22.707464
Várjeszenõ;Jasenov;Slovakia;SK;48.906879;21.902781
Várkeszõ;Várkeszõ;Hungary;HU;47.429224;17.315341
Várkony;Vrakúò;Slovakia;SK;47.937546;17.60392
Várköz;Vrádište;Slovakia;SK;48.824013;17.192155
Várkudu;Coldãu;Romania;RO;47.182899;24.132886
Várkulcsa;Kljucsarki;Ukraine;UA;48.417657;22.642491
Várkút;Hradište;Slovakia;SK;48.459359;18.503226
Vármezõ;Buciumi;Romania;RO;46.198172;26.785708
Vármezõ;Câmpu Cetãþii;Romania;RO;46.671081;25.016869
Várna;Varín;Slovakia;SK;49.206374;18.863408
Várpalánka;Palanok;Ukraine;UA;48.43476;22.687272
Várpalota;Várpalota;Hungary;HU;47.198695;18.138157
Várpalotai ;Várpalotai ;Hungary;HU;47.18808;18.111656
Vársomlyó;ªemlacu Mic;Romania;RO;45.348871;21.412256
Vársonkolyos;ªuncuiuº;Romania;RO;46.945758;22.535741
Várszentmiklós;Sankt Nikolaus im Burgenland;Austria;AT;47.047776;16.328618
Vártelek;Ortelec;Romania;RO;47.20874;23.093049
Várújfalu;Woppendorf;Austria;AT;47.206868;16.389942
Várviz;Varviz;Romania;RO;47.224876;22.438547
Várvölgy;Várvölgy;Hungary;HU;46.866912;17.297598
Vasvár;Vasvár;Hungary;HU;47.049065;16.799882
Vasvörösvár;Rotenturm an der Pinka;Austria;AT;47.252654;16.24285
Végvár;Tormac;Romania;RO;45.520834;21.493605
Vígvár;Veselé;Slovakia;SK;48.55;17.733333
Vízvár;Vízvár;Hungary;HU;46.08952;17.229572
Vukovár;Vukovar;Croatia;HR;45.348505;18.996715
Zalaszegvár;Zalaszegvár;Hungary;HU;47.098069;17.224042
Zalaújvár;Pribislavec;Croatia;HR;46.394273;16.48011
Zalavár;Zalavár;Hungary;HU;46.668518;17.156608
Zsidóvár;Jdioara;Romania;RO;45.620711;22.104621
